OBJECT_NAME,OBJECT_ID,EPOCH,MEAN_MOTION,ECCENTRICITY,INCLINATION,RA_OF_ASC_NODE,ARG_OF_PERICENTER,MEAN_ANOMALY,EPHEMERIS_TYPE,CLASSIFICATION_TYPE,NORAD_CAT_ID,ELEMENT_SET_NO,REV_AT_EPOCH,BSTAR,MEAN_MOTION_DOT,MEAN_MOTION_DDOT
CUBEBUG-2 (LO-74),2013-066AA,2026-07-17T19:22:29.515584,14.93977366,.0055605,97.8919,147.9224,286.5269,72.9846,0,U,39440,999,68156,.18255845E-3,.1941E-4,0
FUNCUBE-1 (AO-73),2013-066AE,2026-07-17T21:03:23.146272,15.09839207,.00379436,97.8295,170.9747,98.9940,261.5586,0,U,39444,999,68429,.2737156E-3,.4433E-4,0
UWE-3,2013-066AG,2026-07-17T19:50:06.876672,14.97209607,.0047603,97.8719,155.1139,215.4548,144.3506,0,U,39446,999,68216,.17707243E-3,.2032E-4,0
UNISAT-6,2014-033C,2026-07-17T20:35:22.420896,14.88372476,.0043969,97.7913,351.0383,328.8309,31.0301,0,U,40012,999,65072,.11605443E-3,.1036E-4,0
DUCHIFAT-1,2014-033M,2026-07-17T21:48:25.524000,15.71547527,.00030926,98.0416,262.5554,233.4347,126.6630,0,U,40021,999,66056,.78804438E-3,.10179E-2,0
QB50P1,2014-033R,2026-07-17T20:35:09.895488,15.18689290,.00104835,98.0967,212.1646,116.9790,243.2514,0,U,40025,999,65768,.22225613E-3,.4537E-4,0
LILACSAT-2,2015-049K,2026-07-17T23:07:16.758624,15.52422062,.00085156,97.4621,236.9905,133.5114,226.6848,0,U,40908,999,60052,.19261288E-3,.11681E-3,0
FOX-1A (AO-85),2015-058D,2026-07-17T22:29:39.229440,14.91098155,.01325843,64.7725,183.4108,44.7716,316.4004,0,U,40967,999,11815,.15531392E-3,.1644E-4,0
CAS-2T & KS-1Q,2016-066G,2026-07-17T22:06:41.716224,14.44773356,.03421119,98.3813,274.3059,36.5009,325.8983,0,U,41847,999,50923,.7255787E-4,.456E-5,0
RADFXSAT (FOX-1B),2017-073E,2026-07-17T13:35:01.969728,15.13080744,.0148332,97.4662,65.1618,223.2065,135.7454,0,U,43017,999,46998,.16851E-3,.3831E-4,0
DIWATA-2B,2018-084H,2026-07-17T23:28:44.173056,15.00569266,.00126891,98.1211,36.5350,75.8524,284.4107,0,U,43678,999,42083,.83137743E-4,.985E-5,0
ES'HAIL 2,2018-090A,2026-07-17T20:08:38.692608,1.00272480,.00023304,0.0143,73.7605,84.7371,105.0912,0,U,43700,999,2798,0,.135E-5,0
FOX-1CLIFF (AO-95),2018-099N,2026-07-17T10:01:18.671808,15.27300598,.0007428,97.4364,258.5624,230.6707,129.3874,0,U,43770,999,41783,.21739E-3,.5742E-4,0
ITASAT,2018-099AE,2026-07-17T13:59:11.536224,15.19397594,.00109949,97.4008,249.4921,240.9559,119.0575,0,U,43786,999,41752,.14271187E-3,.2956E-4,0
JY1SAT (JO-97),2018-099AX,2026-07-17T14:54:41.063904,15.34566538,.0007057,97.4108,261.5784,150.8964,209.2673,0,U,43803,999,41829,.27313E-3,.9074E-4,0
UWE-4,2018-111E,2026-07-17T17:51:45.092160,15.47920542,.00065278,97.5840,128.5854,184.7413,175.3776,0,U,43880,999,41550,.35266224E-3,.18314E-3,0
TIANYAN 01,2019-093C,2026-07-17T22:34:38.279712,14.86560636,.0013355,97.7518,270.4211,352.3525,7.7486,0,U,44881,999,35598,.12763362E-4,.6E-6,0
RS-44 & BREEZE-KM R/B,2019-096E,2026-07-17T19:23:58.391808,12.79748909,.02184884,82.5243,319.3583,72.9172,289.5735,0,U,44909,999,30626,.34888137E-4,.22E-6,0
SALSAT,2020-068K,2026-07-17T22:46:53.825376,15.30194622,.00095193,97.8860,203.8975,182.9906,177.1278,0,U,46495,999,32006,.14102738E-3,.4039E-4,0
XW-3 (CAS-9),2021-131B,2026-07-17T22:42:01.064160,14.41382322,.00044226,98.4990,291.1696,23.6117,336.5275,0,U,50466,999,23954,.33784555E-4,.65E-6,0
GREENCUBE (IO-117),2022-080E,2026-07-17T05:19:51.690720,6.42583336,.0009072,70.1407,287.8015,282.9900,76.9746,0,U,53109,999,9399,0,-.3E-7,0
UMKA 1 (RS40S),2023-091G,2026-07-17T22:46:11.907552,15.21138331,.00127592,97.5030,257.5314,20.2648,339.9091,0,U,57172,999,16868,.13937112E-3,.3038E-4,0
CUBESX-HSE 3 (RS42S),2023-091N,2026-07-17T22:42:03.740832,15.31923763,.00093717,97.5071,264.9352,351.8929,8.2159,0,U,57178,999,16913,.23519164E-3,.7178E-4,0
MONITOR-3 (RS58S),2023-091Q,2026-07-17T21:48:40.837536,15.28402704,.00106915,97.5062,262.5901,359.9834,0.1403,0,U,57180,999,16898,.19944784E-3,.5446E-4,0
MONITOR-4 (RS57S),2023-091S,2026-07-17T22:50:19.508352,15.28490418,.00107096,97.5057,262.6061,0.1645,359.9596,0,U,57182,999,16899,.19951708E-3,.5463E-4,0
MONITOR-2 (RS39S),2023-091U,2026-07-17T22:38:30.671520,15.19168120,.00111209,97.5052,257.0298,14.7826,345.3732,0,U,57184,999,16862,.11365994E-3,.2323E-4,0
SVYATOBOR 1 (RS60S),2023-091X,2026-07-17T22:14:14.257824,15.27088811,.00084546,97.5070,262.9214,354.7722,5.3427,0,U,57187,999,16900,.17976672E-3,.4705E-4,0
VIZARD-METEO (RS38S),2023-091Z,2026-07-17T22:50:21.375456,15.36925915,.00054381,97.5073,269.0719,327.9587,32.1326,0,U,57189,999,16941,.2606362E-3,.9332E-4,0
POLYTECH-UNIVERSE 3 (RS46S),2023-091AB,2026-07-17T21:36:47.538144,15.19380871,.00158246,97.5028,256.4914,28.7575,331.4529,0,U,57191,999,16861,.12669035E-3,.2618E-4,0
UTMN 2 (RS27S),2023-091AP,2026-07-17T22:43:32.915136,15.32740210,.00064656,97.5068,266.6073,339.4894,20.6087,0,U,57203,999,16925,.22401832E-3,.7006E-4,0
